[{"OBJECT_NAME":"STARLINK-31744","OBJECT_ID":"2024-071L","EPOCH":"2026-03-08T05:29:58.821792","MEAN_MOTION":15.27607308,"ECCENTRICITY":0.0001065,"INCLINATION":43.0052,"RA_OF_ASC_NODE":355.6563,"ARG_OF_PERICENTER":283.7136,"MEAN_ANOMALY":76.3597,"EPHEMERIS_TYPE":0,"CLASSIFICATION_TYPE":"U","NORAD_CAT_ID":59494,"ELEMENT_SET_NO":999,"REV_AT_EPOCH":10789,"BSTAR":7.373183e-5,"MEAN_MOTION_DOT":1.769e-5,"MEAN_MOTION_DDOT":0},{"OBJECT_NAME":"CZ-6A DEB","OBJECT_ID":"2024-140KE","EPOCH":"2026-03-09T13:17:54.060288","MEAN_MOTION":15.16973657,"ECCENTRICITY":0.0047014,"INCLINATION":88.8608,"RA_OF_ASC_NODE":269.4441,"ARG_OF_PERICENTER":134.0266,"MEAN_ANOMALY":226.4867,"EPHEMERIS_TYPE":0,"CLASSIFICATION_TYPE":"U","NORAD_CAT_ID":60875,"ELEMENT_SET_NO":999,"REV_AT_EPOCH":8467,"BSTAR":0.004516425,"MEAN_MOTION_DOT":0.00092692,"MEAN_MOTION_DDOT":0}]
